[{"OBJECT_NAME":"ONEWEB-0509","OBJECT_ID":"2022-138Q","EPOCH":"2025-12-23T04:43:39.474624","MEAN_MOTION":13.19725307,"ECCENTRICITY":0.00018642,"INCLINATION":87.922,"RA_OF_ASC_NODE":339.967,"ARG_OF_PERICENTER":81.8137,"MEAN_ANOMALY":278.3207,"EPHEMERIS_TYPE":0,"CLASSIFICATION_TYPE":"U","NORAD_CAT_ID":54127,"ELEMENT_SET_NO":999,"REV_AT_EPOCH":15359,"BSTAR":-0.00011610034,"MEAN_MOTION_DOT":-3.4e-7,"MEAN_MOTION_DDOT":0},{"OBJECT_NAME":"ONEWEB-0510","OBJECT_ID":"2022-138R","EPOCH":"2025-12-22T20:17:26.262240","MEAN_MOTION":13.20770295,"ECCENTRICITY":0.00015856,"INCLINATION":87.9218,"RA_OF_ASC_NODE":309.6049,"ARG_OF_PERICENTER":95.5612,"MEAN_ANOMALY":264.5702,"EPHEMERIS_TYPE":0,"CLASSIFICATION_TYPE":"U","NORAD_CAT_ID":54128,"ELEMENT_SET_NO":999,"REV_AT_EPOCH":15600,"BSTAR":-6.037469e-5,"MEAN_MOTION_DOT":-1.2e-7,"MEAN_MOTION_DDOT":0},{"OBJECT_NAME":"ONEWEB-0511","OBJECT_ID":"2022-138S","EPOCH":"2025-12-23T06:28:17.385024","MEAN_MOTION":13.19725499,"ECCENTRICITY":0.00020635,"INCLINATION":87.9218,"RA_OF_ASC_NODE":339.9561,"ARG_OF_PERICENTER":89.611,"MEAN_ANOMALY":270.5259,"EPHEMERIS_TYPE":0,"CLASSIFICATION_TYPE":"U","NORAD_CAT_ID":54129,"ELEMENT_SET_NO":999,"REV_AT_EPOCH":15363,"BSTAR":-3.7783508e-5,"MEAN_MOTION_DOT":-2.0e-8,"MEAN_MOTION_DDOT":0},{"OBJECT_NAME":"ONEWEB-0512","OBJECT_ID":"2022-138T","EPOCH":"2025-12-23T04:27:43.737696","MEAN_MOTION":13.19725895,"ECCENTRICITY":0.00021261,"INCLINATION":87.9205,"RA_OF_ASC_NODE":339.9957,"ARG_OF_PERICENTER":79.6421,"MEAN_ANOMALY":280.4952,"EPHEMERIS_TYPE":0,"CLASSIFICATION_TYPE":"U","NORAD_CAT_ID":54130,"ELEMENT_SET_NO":999,"REV_AT_EPOCH":15359,"BSTAR":-5.4747151e-5,"MEAN_MOTION_DOT":-9.0e-8,"MEAN_MOTION_DDOT":0},{"OBJECT_NAME":"ONEWEB-0513","OBJECT_ID":"2022-138U","EPOCH":"2025-12-23T04:29:55.260960","MEAN_MOTION":13.20260464,"ECCENTRICITY":0.00026398,"INCLINATION":87.9217,"RA_OF_ASC_NODE":339.9557,"ARG_OF_PERICENTER":79.132,"MEAN_ANOMALY":281.011,"EPHEMERIS_TYPE":0,"CLASSIFICATION_TYPE":"U","NORAD_CAT_ID":54131,"ELEMENT_SET_NO":999,"REV_AT_EPOCH":15349,"BSTAR":-0.00015894321,"MEAN_MOTION_DOT":-5.1e-7,"MEAN_MOTION_DDOT":0},{"OBJECT_NAME":"ONEWEB-0514","OBJECT_ID":"2022-138V","EPOCH":"2025-12-23T04:50:28.779072","MEAN_MOTION":13.19725055,"ECCENTRICITY":0.00017761,"INCLINATION":87.9216,"RA_OF_ASC_NODE":339.9781,"ARG_OF_PERICENTER":89.4109,"MEAN_ANOMALY":270.7227,"EPHEMERIS_TYPE":0,"CLASSIFICATION_TYPE":"U","NORAD_CAT_ID":54132,"ELEMENT_SET_NO":999,"REV_AT_EPOCH":15361,"BSTAR":4.3210758e-5,"MEAN_MOTION_DOT":3.0e-7,"MEAN_MOTION_DDOT":0},{"OBJECT_NAME":"ONEWEB-0515","OBJECT_ID":"2022-138W","EPOCH":"2025-12-22T19:59:15.641952","MEAN_MOTION":13.20771014,"ECCENTRICITY":9.441e-5,"INCLINATION":87.9223,"RA_OF_ASC_NODE":309.5945,"ARG_OF_PERICENTER":84.8806,"MEAN_ANOMALY":275.2435,"EPHEMERIS_TYPE":0,"CLASSIFICATION_TYPE":"U","NORAD_CAT_ID":54133,"ELEMENT_SET_NO":999,"REV_AT_EPOCH":15602,"BSTAR":0.00016268023,"MEAN_MOTION_DOT":7.9e-7,"MEAN_MOTION_DDOT":0},{"OBJECT_NAME":"ONEWEB-0516","OBJECT_ID":"2022-138X","EPOCH":"2025-12-22T22:46:33.157632","MEAN_MOTION":13.19726201,"ECCENTRICITY":0.000176,"INCLINATION":87.9202,"RA_OF_ASC_NODE":340.0467,"ARG_OF_PERICENTER":78.9529,"MEAN_ANOMALY":281.1802,"EPHEMERIS_TYPE":0,"CLASSIFICATION_TYPE":"U","NORAD_CAT_ID":54134,"ELEMENT_SET_NO":999,"REV_AT_EPOCH":15358,"BSTAR":4.1376e-5,"MEAN_MOTION_DOT":3.0e-7,"MEAN_MOTION_DDOT":0},{"OBJECT_NAME":"ONEWEB-0517","OBJECT_ID":"2022-138Y","EPOCH":"2025-12-23T05:33:41.420160","MEAN_MOTION":13.19724807,"ECCENTRICITY":0.00020152,"INCLINATION":87.922,"RA_OF_ASC_NODE":339.9723,"ARG_OF_PERICENTER":90.2626,"MEAN_ANOMALY":269.8738,"EPHEMERIS_TYPE":0,"CLASSIFICATION_TYPE":"U","NORAD_CAT_ID":54135,"ELEMENT_SET_NO":999,"REV_AT_EPOCH":15362,"BSTAR":6.1900168e-5,"MEAN_MOTION_DOT":3.8e-7,"MEAN_MOTION_DDOT":0},{"OBJECT_NAME":"ONEWEB-0518","OBJECT_ID":"2022-138Z","EPOCH":"2025-12-22T22:44:17.113056","MEAN_MOTION":13.19725548,"ECCENTRICITY":0.0001912,"INCLINATION":87.9196,"RA_OF_ASC_NODE":340.0486,"ARG_OF_PERICENTER":79.1014,"MEAN_ANOMALY":281.0334,"EPHEMERIS_TYPE":0,"CLASSIFICATION_TYPE":"U","NORAD_CAT_ID":54136,"ELEMENT_SET_NO":999,"REV_AT_EPOCH":15358,"BSTAR":0.00016279,"MEAN_MOTION_DOT":7.8e-7,"MEAN_MOTION_DDOT":0},{"OBJECT_NAME":"ONEWEB-0519","OBJECT_ID":"2022-138AA","EPOCH":"2025-12-23T04:48:12.216960","MEAN_MOTION":13.19727475,"ECCENTRICITY":0.00020203,"INCLINATION":87.9219,"RA_OF_ASC_NODE":339.9694,"ARG_OF_PERICENTER":89.2105,"MEAN_ANOMALY":270.9259,"EPHEMERIS_TYPE":0,"CLASSIFICATION_TYPE":"U","NORAD_CAT_ID":54137,"ELEMENT_SET_NO":999,"REV_AT_EPOCH":15362,"BSTAR":8.0940352e-5,"MEAN_MOTION_DOT":4.5e-7,"MEAN_MOTION_DDOT":0},{"OBJECT_NAME":"ONEWEB-0520","OBJECT_ID":"2022-138AB","EPOCH":"2025-12-23T05:38:14.551296","MEAN_MOTION":13.19725239,"ECCENTRICITY":0.00019137,"INCLINATION":87.9222,"RA_OF_ASC_NODE":339.9674,"ARG_OF_PERICENTER":76.9902,"MEAN_ANOMALY":283.1445,"EPHEMERIS_TYPE":0,"CLASSIFICATION_TYPE":"U","NORAD_CAT_ID":54138,"ELEMENT_SET_NO":999,"REV_AT_EPOCH":15361,"BSTAR":5.272331e-6,"MEAN_MOTION_DOT":1.5e-7,"MEAN_MOTION_DDOT":0},{"OBJECT_NAME":"ONEWEB-0521","OBJECT_ID":"2022-138AC","EPOCH":"2025-12-22T15:52:35.964768","MEAN_MOTION":13.19725591,"ECCENTRICITY":0.00019124,"INCLINATION":87.9213,"RA_OF_ASC_NODE":340.0659,"ARG_OF_PERICENTER":91.9633,"MEAN_ANOMALY":268.1718,"EPHEMERIS_TYPE":0,"CLASSIFICATION_TYPE":"U","NORAD_CAT_ID":54139,"ELEMENT_SET_NO":999,"REV_AT_EPOCH":15348,"BSTAR":4.6937942e-5,"MEAN_MOTION_DOT":3.2e-7,"MEAN_MOTION_DDOT":0},{"OBJECT_NAME":"ONEWEB-0522","OBJECT_ID":"2022-138AD","EPOCH":"2025-12-22T22:39:44.129664","MEAN_MOTION":13.19724755,"ECCENTRICITY":0.000195,"INCLINATION":87.9212,"RA_OF_ASC_NODE":340.0109,"ARG_OF_PERICENTER":82.0158,"MEAN_ANOMALY":278.1196,"EPHEMERIS_TYPE":0,"CLASSIFICATION_TYPE":"U","NORAD_CAT_ID":54140,"ELEMENT_SET_NO":999,"REV_AT_EPOCH":15356,"BSTAR":4.4779e-5,"MEAN_MOTION_DOT":3.1e-7,"MEAN_MOTION_DDOT":0},{"OBJECT_NAME":"ONEWEB-0523","OBJECT_ID":"2022-138AE","EPOCH":"2025-12-23T02:57:25.421760","MEAN_MOTION":13.20771241,"ECCENTRICITY":0.00014416,"INCLINATION":87.9218,"RA_OF_ASC_NODE":309.5535,"ARG_OF_PERICENTER":106.0124,"MEAN_ANOMALY":254.1168,"EPHEMERIS_TYPE":0,"CLASSIFICATION_TYPE":"U","NORAD_CAT_ID":54141,"ELEMENT_SET_NO":999,"REV_AT_EPOCH":15606,"BSTAR":0.00020386797,"MEAN_MOTION_DOT":9.6e-7,"MEAN_MOTION_DDOT":0},{"OBJECT_NAME":"ONEWEB-0524","OBJECT_ID":"2022-138AF","EPOCH":"2025-12-22T21:14:15.177696","MEAN_MOTION":13.20772311,"ECCENTRICITY":9.32e-5,"INCLINATION":87.9207,"RA_OF_ASC_NODE":309.6031,"ARG_OF_PERICENTER":67.747,"MEAN_ANOMALY":292.3762,"EPHEMERIS_TYPE":0,"CLASSIFICATION_TYPE":"U","NORAD_CAT_ID":54142,"ELEMENT_SET_NO":999,"REV_AT_EPOCH":15603,"BSTAR":9.6612e-5,"MEAN_MOTION_DOT":5.2e-7,"MEAN_MOTION_DDOT":0},{"OBJECT_NAME":"ONEWEB-0525","OBJECT_ID":"2022-138AG","EPOCH":"2025-12-23T04:34:33.518208","MEAN_MOTION":13.19725628,"ECCENTRICITY":0.00019269,"INCLINATION":87.9208,"RA_OF_ASC_NODE":339.9813,"ARG_OF_PERICENTER":76.8778,"MEAN_ANOMALY":283.257,"EPHEMERIS_TYPE":0,"CLASSIFICATION_TYPE":"U","NORAD_CAT_ID":54143,"ELEMENT_SET_NO":999,"REV_AT_EPOCH":15361,"BSTAR":-0.00010708564,"MEAN_MOTION_DOT":-3.0e-7,"MEAN_MOTION_DDOT":0},{"OBJECT_NAME":"ONEWEB-0526","OBJECT_ID":"2022-138AH","EPOCH":"2025-12-23T05:22:19.222176","MEAN_MOTION":13.19725352,"ECCENTRICITY":0.00018131,"INCLINATION":87.9215,"RA_OF_ASC_NODE":339.964,"ARG_OF_PERICENTER":82.5509,"MEAN_ANOMALY":277.583,"EPHEMERIS_TYPE":0,"CLASSIFICATION_TYPE":"U","NORAD_CAT_ID":54144,"ELEMENT_SET_NO":999,"REV_AT_EPOCH":15359,"BSTAR":6.9387285e-5,"MEAN_MOTION_DOT":4.1e-7,"MEAN_MOTION_DDOT":0},{"OBJECT_NAME":"ONEWEB-0529","OBJECT_ID":"2022-138AJ","EPOCH":"2025-12-23T05:26:52.136448","MEAN_MOTION":13.19725657,"ECCENTRICITY":0.00018519,"INCLINATION":87.9203,"RA_OF_ASC_NODE":339.9892,"ARG_OF_PERICENTER":77.3333,"MEAN_ANOMALY":282.8007,"EPHEMERIS_TYPE":0,"CLASSIFICATION_TYPE":"U","NORAD_CAT_ID":54145,"ELEMENT_SET_NO":999,"REV_AT_EPOCH":15361,"BSTAR":-2.2479948e-5,"MEAN_MOTION_DOT":4.0e-8,"MEAN_MOTION_DDOT":0},{"OBJECT_NAME":"ONEWEB-0531","OBJECT_ID":"2022-138AK","EPOCH":"2025-12-22T20:53:48.422112","MEAN_MOTION":13.20771539,"ECCENTRICITY":0.0001069,"INCLINATION":87.9218,"RA_OF_ASC_NODE":309.6001,"ARG_OF_PERICENTER":104.3534,"MEAN_ANOMALY":255.7718,"EPHEMERIS_TYPE":0,"CLASSIFICATION_TYPE":"U","NORAD_CAT_ID":54146,"ELEMENT_SET_NO":999,"REV_AT_EPOCH":15603,"BSTAR":-0.00012292,"MEAN_MOTION_DOT":-3.7e-7,"MEAN_MOTION_DDOT":0},{"OBJECT_NAME":"ONEWEB-0535","OBJECT_ID":"2022-138AL","EPOCH":"2025-12-23T04:25:27.427872","MEAN_MOTION":13.19723794,"ECCENTRICITY":0.00017405,"INCLINATION":87.9215,"RA_OF_ASC_NODE":339.9667,"ARG_OF_PERICENTER":98.0893,"MEAN_ANOMALY":262.0437,"EPHEMERIS_TYPE":0,"CLASSIFICATION_TYPE":"U","NORAD_CAT_ID":54147,"ELEMENT_SET_NO":999,"REV_AT_EPOCH":15362,"BSTAR":-0.00024157743,"MEAN_MOTION_DOT":-8.4e-7,"MEAN_MOTION_DDOT":0},{"OBJECT_NAME":"ONEWEB-0536","OBJECT_ID":"2022-138AM","EPOCH":"2025-12-23T03:51:58.692672","MEAN_MOTION":13.20769884,"ECCENTRICITY":0.00011386,"INCLINATION":87.9207,"RA_OF_ASC_NODE":309.5851,"ARG_OF_PERICENTER":106.5156,"MEAN_ANOMALY":253.6103,"EPHEMERIS_TYPE":0,"CLASSIFICATION_TYPE":"U","NORAD_CAT_ID":54148,"ELEMENT_SET_NO":999,"REV_AT_EPOCH":15606,"BSTAR":-0.00030637461,"MEAN_MOTION_DOT":-1.12e-6,"MEAN_MOTION_DDOT":0},{"OBJECT_NAME":"ONEWEB-0527","OBJECT_ID":"2022-166A","EPOCH":"2025-12-23T04:14:16.747008","MEAN_MOTION":13.21825309,"ECCENTRICITY":0.00017228,"INCLINATION":87.9229,"RA_OF_ASC_NODE":279.1068,"ARG_OF_PERICENTER":75.3461,"MEAN_ANOMALY":284.7864,"EPHEMERIS_TYPE":0,"CLASSIFICATION_TYPE":"U","NORAD_CAT_ID":54642,"ELEMENT_SET_NO":999,"REV_AT_EPOCH":14828,"BSTAR":5.1561391e-5,"MEAN_MOTION_DOT":3.4e-7,"MEAN_MOTION_DDOT":0}]
